{
  "type": "FeatureCollection",
  "features": [
    {
      "type": "Feature",
      "properties": {
        "norad_id": 30940,
        "name": "FENGYUN 1C DEB",
        "group": "fengyun-1c-debris",
        "lat": 29.040886083232756,
        "lon": 175.58526404124012,
        "alt_km": 891.1334502206346,
        "timestamp": "2025-12-16T13:52:37.803265+00:00",
        "meta_object_name": "FENGYUN 1C DEB",
        "meta_object_id": "1999-025BAE",
        "meta_epoch": "2025-12-14T23:55:42.913344",
        "meta_mean_motion": 14.08308091,
        "meta_eccentricity": 0.00409851,
        "meta_inclination": 98.6232,
        "meta_ra_of_asc_node": 349.2408,
        "meta_arg_of_pericenter": 357.4428,
        "meta_mean_anomaly": 60.8527,
        "meta_ephemeris_type": 0,
        "meta_classification_type": "U",
        "meta_norad_cat_id": 30940,
        "meta_element_set_no": 999,
        "meta_rev_at_epoch": 96164,
        "meta_bstar": 0.00046219963,
        "meta_mean_motion_dot": 7.55e-06,
        "meta_mean_motion_ddot": 0,
        "tle_line1": "1 30940U 99025BAE 25348.99702446  .00000755  00000+0  46220-3 0  9997",
        "tle_line2": "2 30940  98.6232 349.2408 0040985 357.4428  60.8527 14.08308091961645"
      },
      "geometry": {
        "type": "Point",
        "coordinates": [
          175.58526404124012,
          29.040886083232756
        ]
      }
    },
    {
      "type": "Feature",
      "properties": {
        "norad_id": 30941,
        "name": "FENGYUN 1C DEB",
        "group": "fengyun-1c-debris",
        "lat": -21.05599109643061,
        "lon": 24.01714349777915,
        "alt_km": 799.5388043050698,
        "timestamp": "2025-12-16T13:52:37.803275+00:00",
        "meta_object_name": "FENGYUN 1C DEB",
        "meta_object_id": "1999-025BAF",
        "meta_epoch": "2025-12-14T13:57:07.370784",
        "meta_mean_motion": 14.31060465,
        "meta_eccentricity": 0.00341089,
        "meta_inclination": 98.5476,
        "meta_ra_of_asc_node": 205.3725,
        "meta_arg_of_pericenter": 311.912,
        "meta_mean_anomaly": 47.9156,
        "meta_ephemeris_type": 0,
        "meta_classification_type": "U",
        "meta_norad_cat_id": 30941,
        "meta_element_set_no": 999,
        "meta_rev_at_epoch": 96652,
        "meta_bstar": 0.0016701362,
        "meta_mean_motion_dot": 4.386e-05,
        "meta_mean_motion_ddot": 0,
        "tle_line1": "1 30941U 99025BAF 25348.58133531  .00004386  00000+0  16701-2 0  9990",
        "tle_line2": "2 30941  98.5476 205.3725 0034108 311.9120  47.9156 14.31060465966525"
      },
      "geometry": {
        "type": "Point",
        "coordinates": [
          24.01714349777915,
          -21.05599109643061
        ]
      }
    },
    {
      "type": "Feature",
      "properties": {
        "norad_id": 30942,
        "name": "FENGYUN 1C DEB",
        "group": "fengyun-1c-debris",
        "lat": -16.1975277342452,
        "lon": -8.741626954421976,
        "alt_km": 883.2048887605652,
        "timestamp": "2025-12-16T13:52:37.803284+00:00",
        "meta_object_name": "FENGYUN 1C DEB",
        "meta_object_id": "1999-025BAG",
        "meta_epoch": "2025-12-15T11:30:19.638144",
        "meta_mean_motion": 14.14840632,
        "meta_eccentricity": 0.0138039,
        "meta_inclination": 98.6797,
        "meta_ra_of_asc_node": 347.6463,
        "meta_arg_of_pericenter": 98.5199,
        "meta_mean_anomaly": 53.0554,
        "meta_ephemeris_type": 0,
        "meta_classification_type": "U",
        "meta_norad_cat_id": 30942,
        "meta_element_set_no": 999,
        "meta_rev_at_epoch": 96683,
        "meta_bstar": 0.00022527902,
        "meta_mean_motion_dot": 4.35e-06,
        "meta_mean_motion_ddot": 0,
        "tle_line1": "1 30942U 99025BAG 25349.47939396  .00000435  00000+0  22528-3 0  9999",
        "tle_line2": "2 30942  98.6797 347.6463 0138039  98.5199  53.0554 14.14840632966831"
      },
      "geometry": {
        "type": "Point",
        "coordinates": [
          -8.741626954421976,
          -16.1975277342452
        ]
      }
    },
    {
      "type": "Feature",
      "properties": {
        "norad_id": 30943,
        "name": "FENGYUN 1C DEB",
        "group": "fengyun-1c-debris",
        "lat": -1.1541247121478406,
        "lon": -175.79968872465196,
        "alt_km": 902.8209742582303,
        "timestamp": "2025-12-16T13:52:37.803294+00:00",
        "meta_object_name": "FENGYUN 1C DEB",
        "meta_object_id": "1999-025BAH",
        "meta_epoch": "2025-12-15T06:14:49.012800",
        "meta_mean_motion": 14.04490684,
        "meta_eccentricity": 0.0050762,
        "meta_inclination": 98.7971,
        "meta_ra_of_asc_node": 3.1023,
        "meta_arg_of_pericenter": 58.7985,
        "meta_mean_anomaly": 301.8144,
        "meta_ephemeris_type": 0,
        "meta_classification_type": "U",
        "meta_norad_cat_id": 30943,
        "meta_element_set_no": 999,
        "meta_rev_at_epoch": 95777,
        "meta_bstar": 0.00046799622,
        "meta_mean_motion_dot": 7.13e-06,
        "meta_mean_motion_ddot": 0,
        "tle_line1": "1 30943U 99025BAH 25349.26028950  .00000713  00000+0  46800-3 0  9990",
        "tle_line2": "2 30943  98.7971   3.1023 0050762  58.7985 301.8144 14.04490684957779"
      },
      "geometry": {
        "type": "Point",
        "coordinates": [
          -175.79968872465196,
          -1.1541247121478406
        ]
      }
    },
    {
      "type": "Feature",
      "properties": {
        "norad_id": 30944,
        "name": "FENGYUN 1C DEB",
        "group": "fengyun-1c-debris",
        "lat": -55.90312147726542,
        "lon": 59.79174475364847,
        "alt_km": 812.0012773401704,
        "timestamp": "2025-12-16T13:52:37.803306+00:00",
        "meta_object_name": "FENGYUN 1C DEB",
        "meta_object_id": "1999-025BAJ",
        "meta_epoch": "2025-12-15T15:40:30.927072",
        "meta_mean_motion": 14.52447883,
        "meta_eccentricity": 0.0149291,
        "meta_inclination": 98.8503,
        "meta_ra_of_asc_node": 45.5101,
        "meta_arg_of_pericenter": 91.9029,
        "meta_mean_anomaly": 57.9243,
        "meta_ephemeris_type": 0,
        "meta_classification_type": "U",
        "meta_norad_cat_id": 30944,
        "meta_element_set_no": 999,
        "meta_rev_at_epoch": 99118,
        "meta_bstar": 0.00014375429,
        "meta_mean_motion_dot": 6.21e-06,
        "meta_mean_motion_ddot": 0,
        "tle_line1": "1 30944U 99025BAJ 25349.65313573  .00000621  00000+0  14375-3 0  9992",
        "tle_line2": "2 30944  98.8503  45.5101 0149291  91.9029  57.9243 14.52447883991181"
      },
      "geometry": {
        "type": "Point",
        "coordinates": [
          59.79174475364847,
          -55.90312147726542
        ]
      }
    },
    {
      "type": "Feature",
      "properties": {
        "norad_id": 30945,
        "name": "FENGYUN 1C DEB",
        "group": "fengyun-1c-debris",
        "lat": 74.41338837376576,
        "lon": -144.07347190567762,
        "alt_km": 779.6886289712993,
        "timestamp": "2025-12-16T13:52:37.803317+00:00",
        "meta_object_name": "FENGYUN 1C DEB",
        "meta_object_id": "1999-025BAK",
        "meta_epoch": "2025-12-14T18:33:31.164768",
        "meta_mean_motion": 14.29735744,
        "meta_eccentricity": 0.00306092,
        "meta_inclination": 99.39,
        "meta_ra_of_asc_node": 357.5974,
        "meta_arg_of_pericenter": 32.6049,
        "meta_mean_anomaly": 144.5479,
        "meta_ephemeris_type": 0,
        "meta_classification_type": "U",
        "meta_norad_cat_id": 30945,
        "meta_element_set_no": 999,
        "meta_rev_at_epoch": 96466,
        "meta_bstar": 0.0015774128,
        "meta_mean_motion_dot": 4.021e-05,
        "meta_mean_motion_ddot": 0,
        "tle_line1": "1 30945U 99025BAK 25348.77327737  .00004021  00000+0  15774-2 0  9993",
        "tle_line2": "2 30945  99.3900 357.5974 0030609  32.6049 144.5479 14.29735744964666"
      },
      "geometry": {
        "type": "Point",
        "coordinates": [
          -144.07347190567762,
          74.41338837376576
        ]
      }
    },
    {
      "type": "Feature",
      "properties": {
        "norad_id": 30946,
        "name": "FENGYUN 1C DEB",
        "group": "fengyun-1c-debris",
        "lat": -47.38262168692938,
        "lon": 115.99368347228254,
        "alt_km": 779.3199851666313,
        "timestamp": "2025-12-16T13:52:37.803327+00:00",
        "meta_object_name": "FENGYUN 1C DEB",
        "meta_object_id": "1999-025BAL",
        "meta_epoch": "2025-12-15T06:44:01.932288",
        "meta_mean_motion": 14.48165133,
        "meta_eccentricity": 0.0089454,
        "meta_inclination": 99.0379,
        "meta_ra_of_asc_node": 104.6452,
        "meta_arg_of_pericenter": 185.3572,
        "meta_mean_anomaly": 204.5364,
        "meta_ephemeris_type": 0,
        "meta_classification_type": "U",
        "meta_norad_cat_id": 30946,
        "meta_element_set_no": 999,
        "meta_rev_at_epoch": 98388,
        "meta_bstar": 0.00063522366,
        "meta_mean_motion_dot": 2.436e-05,
        "meta_mean_motion_ddot": 0,
        "tle_line1": "1 30946U 99025BAL 25349.28057792  .00002436  00000+0  63522-3 0  9995",
        "tle_line2": "2 30946  99.0379 104.6452 0089454 185.3572 204.5364 14.48165133983880"
      },
      "geometry": {
        "type": "Point",
        "coordinates": [
          115.99368347228254,
          -47.38262168692938
        ]
      }
    }
  ]
}